[{"OBJECT_NAME":"OBJECT C","OBJECT_ID":"2024-016C","EPOCH":"2026-03-09T22:43:52.910688","MEAN_MOTION":15.23604434,"ECCENTRICITY":0.0010855,"INCLINATION":97.441,"RA_OF_ASC_NODE":150.2614,"ARG_OF_PERICENTER":179.1446,"MEAN_ANOMALY":180.9812,"EPHEMERIS_TYPE":0,"CLASSIFICATION_TYPE":"U","NORAD_CAT_ID":58822,"ELEMENT_SET_NO":999,"REV_AT_EPOCH":11801,"BSTAR":0.0004308258,"MEAN_MOTION_DOT":0.00010264,"MEAN_MOTION_DDOT":0},{"OBJECT_NAME":"KUIPER-00155","OBJECT_ID":"2025-217N","EPOCH":"2026-03-09T06:30:32.856768","MEAN_MOTION":15.23116677,"ECCENTRICITY":0.00054059,"INCLINATION":51.8785,"RA_OF_ASC_NODE":13.4958,"ARG_OF_PERICENTER":320.4858,"MEAN_ANOMALY":39.5728,"EPHEMERIS_TYPE":0,"CLASSIFICATION_TYPE":"U","NORAD_CAT_ID":65774,"ELEMENT_SET_NO":999,"REV_AT_EPOCH":2525,"BSTAR":0.00081110335,"MEAN_MOTION_DOT":0.00019122,"MEAN_MOTION_DDOT":0}]
